IUS R/B(2)              
1 26883U 01033D   26062.62555307 -.00000164  00000+0  00000+0 0  9993
2 26883  12.8212  17.4612 0007037   2.1609 357.8608  0.99904135 24734
COSMOS 2379             
1 26892U 01037A   26064.25134390 -.00000370  00000+0  00000+0 0  9992
2 26892  13.1745  15.0346 0006496 246.2978 116.7147  1.00321540 89822
SL-12 R/B(2)            
1 26895U 01037D   26063.83378067 -.00000289  00000+0  00000+0 0  9998
2 26895  13.1682  15.2614 0019315  77.1332 106.9722  1.00196742 89750
INTELSAT 902 (IS-902)   
1 26900U 01039A   26063.34350089 -.00000292  00000+0  00000+0 0  9991
2 26900   5.8522  73.0613 0004553 272.5991 249.9991  1.00272825 89640
SL-12 R/B(2)            
1 26939U 01045D   26063.87392176 -.00000151  00000+0  00000+0 0  9995
2 26939  13.8084  12.8703 0025840  24.8890 159.8431  1.00209651 89682
COSMOS 917 DEB          
1 26964U 77047E   26062.57629449 -.00000951  00000+0  00000+0 0  9998
2 26964  62.2019 306.7616 7223225  36.6589 355.6781  2.02661256575235
ARIANE 3 DEB            
1 27027U 88081K   26063.79974350 -.00000156  00000+0 -15389-2 0  9995
2 27027   8.7167 334.3282 7155243 322.5808   9.7810  2.21511352216937
ARIANE 2 DEB            
1 27034U 89006P   26062.73071664 -.00000031  00000+0  56289-3 0  9996
2 27034   8.4821 335.6249 7111153 292.3458   9.9881  2.24869526202222
ARIANE 2 DEB            
1 27039U 89006U   26063.08468068 -.00000034  00000+0  16085-2 0  9990
2 27039   7.8185 198.9625 7154043 197.3509  69.8032  2.26227334203778
ARIANE 2 DEB            
1 27042U 89006X   26064.26659729 -.00000156  00000+0 -13849-2 0  9992
2 27042   8.2376 301.9148 7130371 357.6274 101.5916  2.25357413 99165
ARIANE 2 DEB            
1 27043U 89006Y   26062.71397686 -.00000034  00000+0  63987-3 0  9995
2 27043   8.4302 317.7196 7121752 326.8604   7.0474  2.25090562202145
ARIANE 2 DEB            
1 27046U 89006AB  26063.53331515 -.00000250  00000+0 -38697-2 0  9998
2 27046   8.1543  29.0694 7083499 184.5853 307.3738  2.24260881109404
USA 164 (MILSTAR-2 3)   
1 27168U 02001A   26064.09211301  .00000092  00000+0  00000+0 0  9991
2 27168  11.0561  22.5274 0099541   4.7784 187.6114  1.00269965 31910
TITAN 4 CENTAUR R/B     
1 27169U 02001B   26064.03380586  .00000101  00000+0  00000+0 0  9999
2 27169  10.0146  30.4865 0048789 134.0724 226.3815  1.00166153 25335
ARIANE 42L R/B          
1 27299U 02002B   26063.93230399  .00000061  00000+0  12778-2 0  9991
2 27299   3.7663 130.8759 7242387  41.4914 355.0966  2.22235611194489
ECHOSTAR 7              
1 27378U 02006A   26064.24905831 -.00000307  00000+0  00000+0 0  9994
2 27378   3.7464  78.6918 0004100 255.6496  63.6029  0.99849429 49490
INTELSAT 904 (IS-904)   
1 27380U 02007A   26063.33239102 -.00000234  00000+0  00000+0 0  9997
2 27380   6.6586  70.4418 0006117 305.6990 234.1072  1.00273296 50716
