[{"OBJECT_NAME":"IUS R/B(2)","OBJECT_ID":"2001-033D","EPOCH":"2026-03-03T15:00:47.785248","MEAN_MOTION":0.99904135,"ECCENTRICITY":0.00070371,"INCLINATION":12.8212,"RA_OF_ASC_NODE":17.4612,"ARG_OF_PERICENTER":2.1609,"MEAN_ANOMALY":357.8608,"EPHEMERIS_TYPE":0,"CLASSIFICATION_TYPE":"U","NORAD_CAT_ID":26883,"ELEMENT_SET_NO":999,"REV_AT_EPOCH":2473,"BSTAR":0,"MEAN_MOTION_DOT":-1.64e-6,"MEAN_MOTION_DDOT":0},{"OBJECT_NAME":"COSMOS 2379","OBJECT_ID":"2001-037A","EPOCH":"2026-03-05T06:01:56.112960","MEAN_MOTION":1.0032154,"ECCENTRICITY":0.00064966,"INCLINATION":13.1745,"RA_OF_ASC_NODE":15.0346,"ARG_OF_PERICENTER":246.2978,"MEAN_ANOMALY":116.7147,"EPHEMERIS_TYPE":0,"CLASSIFICATION_TYPE":"U","NORAD_CAT_ID":26892,"ELEMENT_SET_NO":999,"REV_AT_EPOCH":8982,"BSTAR":0,"MEAN_MOTION_DOT":-3.7e-6,"MEAN_MOTION_DDOT":0},{"OBJECT_NAME":"SL-12 R/B(2)","OBJECT_ID":"2001-037D","EPOCH":"2026-03-04T20:00:38.649888","MEAN_MOTION":1.00196742,"ECCENTRICITY":0.00193151,"INCLINATION":13.1682,"RA_OF_ASC_NODE":15.2614,"ARG_OF_PERICENTER":77.1332,"MEAN_ANOMALY":106.9722,"EPHEMERIS_TYPE":0,"CLASSIFICATION_TYPE":"U","NORAD_CAT_ID":26895,"ELEMENT_SET_NO":999,"REV_AT_EPOCH":8975,"BSTAR":0,"MEAN_MOTION_DOT":-2.89e-6,"MEAN_MOTION_DDOT":0},{"OBJECT_NAME":"INTELSAT 902 (IS-902)","OBJECT_ID":"2001-039A","EPOCH":"2026-03-04T08:14:38.476896","MEAN_MOTION":1.00272825,"ECCENTRICITY":0.00045534,"INCLINATION":5.8522,"RA_OF_ASC_NODE":73.0613,"ARG_OF_PERICENTER":272.5991,"MEAN_ANOMALY":249.9991,"EPHEMERIS_TYPE":0,"CLASSIFICATION_TYPE":"U","NORAD_CAT_ID":26900,"ELEMENT_SET_NO":999,"REV_AT_EPOCH":8964,"BSTAR":0,"MEAN_MOTION_DOT":-2.92e-6,"MEAN_MOTION_DDOT":0},{"OBJECT_NAME":"SL-12 R/B(2)","OBJECT_ID":"2001-045D","EPOCH":"2026-03-04T20:58:26.840064","MEAN_MOTION":1.00209651,"ECCENTRICITY":0.00258406,"INCLINATION":13.8084,"RA_OF_ASC_NODE":12.8703,"ARG_OF_PERICENTER":24.889,"MEAN_ANOMALY":159.8431,"EPHEMERIS_TYPE":0,"CLASSIFICATION_TYPE":"U","NORAD_CAT_ID":26939,"ELEMENT_SET_NO":999,"REV_AT_EPOCH":8968,"BSTAR":0,"MEAN_MOTION_DOT":-1.51e-6,"MEAN_MOTION_DDOT":0},{"OBJECT_NAME":"COSMOS 917 DEB","OBJECT_ID":"1977-047E","EPOCH":"2026-03-03T13:49:51.843936","MEAN_MOTION":2.02661256,"ECCENTRICITY":0.7223225,"INCLINATION":62.2019,"RA_OF_ASC_NODE":306.7616,"ARG_OF_PERICENTER":36.6589,"MEAN_ANOMALY":355.6781,"EPHEMERIS_TYPE":0,"CLASSIFICATION_TYPE":"U","NORAD_CAT_ID":26964,"ELEMENT_SET_NO":999,"REV_AT_EPOCH":57523,"BSTAR":0,"MEAN_MOTION_DOT":-9.51e-6,"MEAN_MOTION_DDOT":0},{"OBJECT_NAME":"ARIANE 3 DEB","OBJECT_ID":"1988-081K","EPOCH":"2026-03-04T19:11:37.838400","MEAN_MOTION":2.21511352,"ECCENTRICITY":0.71552436,"INCLINATION":8.7167,"RA_OF_ASC_NODE":334.3282,"ARG_OF_PERICENTER":322.5808,"MEAN_ANOMALY":9.781,"EPHEMERIS_TYPE":0,"CLASSIFICATION_TYPE":"U","NORAD_CAT_ID":27027,"ELEMENT_SET_NO":999,"REV_AT_EPOCH":21693,"BSTAR":-0.0015388962,"MEAN_MOTION_DOT":-1.56e-6,"MEAN_MOTION_DDOT":0},{"OBJECT_NAME":"ARIANE 2 DEB","OBJECT_ID":"1989-006P","EPOCH":"2026-03-03T17:32:13.917696","MEAN_MOTION":2.24869526,"ECCENTRICITY":0.71111531,"INCLINATION":8.4821,"RA_OF_ASC_NODE":335.6249,"ARG_OF_PERICENTER":292.3458,"MEAN_ANOMALY":9.9881,"EPHEMERIS_TYPE":0,"CLASSIFICATION_TYPE":"U","NORAD_CAT_ID":27034,"ELEMENT_SET_NO":999,"REV_AT_EPOCH":20222,"BSTAR":0.00056288537,"MEAN_MOTION_DOT":-3.1e-7,"MEAN_MOTION_DDOT":0},{"OBJECT_NAME":"ARIANE 2 DEB","OBJECT_ID":"1989-006U","EPOCH":"2026-03-04T02:01:56.410752","MEAN_MOTION":2.26227334,"ECCENTRICITY":0.71540439,"INCLINATION":7.8185,"RA_OF_ASC_NODE":198.9625,"ARG_OF_PERICENTER":197.3509,"MEAN_ANOMALY":69.8032,"EPHEMERIS_TYPE":0,"CLASSIFICATION_TYPE":"U","NORAD_CAT_ID":27039,"ELEMENT_SET_NO":999,"REV_AT_EPOCH":20377,"BSTAR":0.0016085406,"MEAN_MOTION_DOT":-3.4e-7,"MEAN_MOTION_DDOT":0},{"OBJECT_NAME":"ARIANE 2 DEB","OBJECT_ID":"1989-006X","EPOCH":"2026-03-05T06:23:54.005856","MEAN_MOTION":2.25357413,"ECCENTRICITY":0.71303712,"INCLINATION":8.2376,"RA_OF_ASC_NODE":301.9148,"ARG_OF_PERICENTER":357.6274,"MEAN_ANOMALY":101.5916,"EPHEMERIS_TYPE":0,"CLASSIFICATION_TYPE":"U","NORAD_CAT_ID":27042,"ELEMENT_SET_NO":999,"REV_AT_EPOCH":9916,"BSTAR":-0.0013849009,"MEAN_MOTION_DOT":-1.56e-6,"MEAN_MOTION_DDOT":0},{"OBJECT_NAME":"ARIANE 2 DEB","OBJECT_ID":"1989-006Y","EPOCH":"2026-03-03T17:08:07.600704","MEAN_MOTION":2.25090562,"ECCENTRICITY":0.71217527,"INCLINATION":8.4302,"RA_OF_ASC_NODE":317.7196,"ARG_OF_PERICENTER":326.8604,"MEAN_ANOMALY":7.0474,"EPHEMERIS_TYPE":0,"CLASSIFICATION_TYPE":"U","NORAD_CAT_ID":27043,"ELEMENT_SET_NO":999,"REV_AT_EPOCH":20214,"BSTAR":0.00063987345,"MEAN_MOTION_DOT":-3.4e-7,"MEAN_MOTION_DDOT":0},{"OBJECT_NAME":"ARIANE 2 DEB","OBJECT_ID":"1989-006AB","EPOCH":"2026-03-04T12:47:58.428960","MEAN_MOTION":2.24260881,"ECCENTRICITY":0.70834996,"INCLINATION":8.1543,"RA_OF_ASC_NODE":29.0694,"ARG_OF_PERICENTER":184.5853,"MEAN_ANOMALY":307.3738,"EPHEMERIS_TYPE":0,"CLASSIFICATION_TYPE":"U","NORAD_CAT_ID":27046,"ELEMENT_SET_NO":999,"REV_AT_EPOCH":10940,"BSTAR":-0.0038697393,"MEAN_MOTION_DOT":-2.5e-6,"MEAN_MOTION_DDOT":0},{"OBJECT_NAME":"USA 164 (MILSTAR-2 3)","OBJECT_ID":"2002-001A","EPOCH":"2026-03-05T02:12:38.564064","MEAN_MOTION":1.00269965,"ECCENTRICITY":0.00995415,"INCLINATION":11.0561,"RA_OF_ASC_NODE":22.5274,"ARG_OF_PERICENTER":4.7784,"MEAN_ANOMALY":187.6114,"EPHEMERIS_TYPE":0,"CLASSIFICATION_TYPE":"U","NORAD_CAT_ID":27168,"ELEMENT_SET_NO":999,"REV_AT_EPOCH":3191,"BSTAR":0,"MEAN_MOTION_DOT":9.2e-7,"MEAN_MOTION_DDOT":0},{"OBJECT_NAME":"TITAN 4 CENTAUR R/B","OBJECT_ID":"2002-001B","EPOCH":"2026-03-05T00:48:40.826304","MEAN_MOTION":1.00166153,"ECCENTRICITY":0.00487893,"INCLINATION":10.0146,"RA_OF_ASC_NODE":30.4865,"ARG_OF_PERICENTER":134.0724,"MEAN_ANOMALY":226.3815,"EPHEMERIS_TYPE":0,"CLASSIFICATION_TYPE":"U","NORAD_CAT_ID":27169,"ELEMENT_SET_NO":999,"REV_AT_EPOCH":2533,"BSTAR":0,"MEAN_MOTION_DOT":1.01e-6,"MEAN_MOTION_DDOT":0},{"OBJECT_NAME":"ARIANE 42L R/B","OBJECT_ID":"2002-002B","EPOCH":"2026-03-04T22:22:31.064736","MEAN_MOTION":2.22235611,"ECCENTRICITY":0.72423874,"INCLINATION":3.7663,"RA_OF_ASC_NODE":130.8759,"ARG_OF_PERICENTER":41.4914,"MEAN_ANOMALY":355.0966,"EPHEMERIS_TYPE":0,"CLASSIFICATION_TYPE":"U","NORAD_CAT_ID":27299,"ELEMENT_SET_NO":999,"REV_AT_EPOCH":19448,"BSTAR":0.0012777958,"MEAN_MOTION_DOT":6.1e-7,"MEAN_MOTION_DDOT":0},{"OBJECT_NAME":"ECHOSTAR 7","OBJECT_ID":"2002-006A","EPOCH":"2026-03-05T05:58:38.637984","MEAN_MOTION":0.99849429,"ECCENTRICITY":0.00041008,"INCLINATION":3.7464,"RA_OF_ASC_NODE":78.6918,"ARG_OF_PERICENTER":255.6496,"MEAN_ANOMALY":63.6029,"EPHEMERIS_TYPE":0,"CLASSIFICATION_TYPE":"U","NORAD_CAT_ID":27378,"ELEMENT_SET_NO":999,"REV_AT_EPOCH":4949,"BSTAR":0,"MEAN_MOTION_DOT":-3.07e-6,"MEAN_MOTION_DDOT":0},{"OBJECT_NAME":"INTELSAT 904 (IS-904)","OBJECT_ID":"2002-007A","EPOCH":"2026-03-04T07:58:38.584128","MEAN_MOTION":1.00273296,"ECCENTRICITY":0.00061171,"INCLINATION":6.6586,"RA_OF_ASC_NODE":70.4418,"ARG_OF_PERICENTER":305.699,"MEAN_ANOMALY":234.1072,"EPHEMERIS_TYPE":0,"CLASSIFICATION_TYPE":"U","NORAD_CAT_ID":27380,"ELEMENT_SET_NO":999,"REV_AT_EPOCH":5071,"BSTAR":0,"MEAN_MOTION_DOT":-2.34e-6,"MEAN_MOTION_DDOT":0}]
